GPS BIIR-2  (PRN 13)    
1 24876C 97035A   21342.69756944 -.00000000  00000-0  00000-0 0  3426
2 24876  55.4869 163.1156 0055567  54.7604 156.1772  2.00563200    11
GPS BIIR-4  (PRN 20)    
1 26360C 00025A   21342.69756944 -.00000000  00000-0  00000-0 0  3429
2 26360  53.9073  86.7577 0054275 177.6772 120.2685  2.00559924    17
GPS BIIR-8  (PRN 16)    
1 27663C 03005A   21342.69756944  .00000000  00000-0  00000-0 0  3426
2 27663  55.6474 280.6333 0123188  38.4869 236.5787  2.00575586    10
GPS BIIR-9  (PRN 21)    
1 27704C 03010A   21342.69756944 -.00000000  00000-0  00000-0 0  3429
2 27704  54.9455  31.0396 0245561 299.7704 194.5552  2.00571046    14
GPS BIIR-10 (PRN 22)    
1 28129C 03058A   21342.69756944 -.00000000  00000-0  00000-0 0  3423
2 28129  53.7190  89.3880 0069559 308.7535 123.4281  2.00564292    12
GPS BIIR-11 (PRN 19)    
1 28190C 04009A   21342.69756944  .00000000  00000-0  00000-0 0  3427
2 28190  56.1075 341.5621 0087020 114.2646 322.6904  2.00564382    16
GPS BIIR-13 (PRN 02)    
1 28474C 04045A   21342.69756944 -.00000000  00000-0  00000-0 0  3423
2 28474  55.2765  31.1078 0208227 275.6771  69.0148  2.00547914    14
GPS BIIRM-1 (PRN 17)    
1 28874C 05038A   21342.69756944  .00000000  00000-0  00000-0 0  3429
2 28874  56.1822 338.9866 0139873 272.5218 187.0858  2.00558947    14
GPS BIIRM-2 (PRN 31)    
1 29486C 06042A   21342.69756944  .00000000  00000-0  00000-0 0  3425
2 29486  54.7401 216.8641 0103434  18.6534 357.2717  2.00565416    14
GPS BIIRM-3 (PRN 12)    
1 29601C 06052A   21342.69756944  .00000000  00000-0  00000-0 0  3425
2 29601  55.6483 279.5642 0082167  69.8782 343.3062  2.00567314    10
GPS BIIRM-4 (PRN 15)    
1 32260C 07047A   21342.69756944 -.00000000  00000-0  00000-0 0  3426
2 32260  53.2668 148.4490 0137126  60.3754 133.9516  2.00558926    16
GPS BIIRM-5 (PRN 29)    
1 32384C 07062A   21342.69756944  .00000000  00000-0  00000-0 0  3429
2 32384  56.2951 339.7234 0015868 139.5797 185.9413  2.00551675    13
GPS BIIRM-6 (PRN 07)    
1 32711C 08012A   21342.69756944  .00000000  00000-0  00000-0 0  3429
2 32711  54.4961 215.8430 0155023 228.7777  21.1761  2.00558333    12
GPS BIIRM-8 (PRN 05)    
1 35752C 09043A   21342.69756944 -.00000000  00000-0  00000-0 0  3423
2 35752  54.9300  93.2178 0057490  57.2178 210.7733  2.00568660    17
GPS BIIF-1  (PRN 25)    
1 36585C 10022A   21342.69756944  .00000000  00000-0  00000-0 0  3426
2 36585  54.9267 275.2161 0099778  54.4511 331.8530  2.00555346    10
GPS BIIF-2  (PRN 01)    
1 37753C 11036A   21342.69756944 -.00000000  00000-0  00000-0 0  3421
2 37753  56.5135  36.1399 0109535  49.9766  59.6190  2.00564052    12
GPS BIIF-3  (PRN 24)    
1 38833C 12053A   21342.69756944  .00000000  00000-0  00000-0 0  3420
2 38833  53.5484 211.1693 0119585  44.3999  78.1654  2.00559723    11
GPS BIIF-4  (PRN 27)    
1 39166C 13023A   21342.69756944  .00000000  00000-0  00000-0 0  3428
2 39166  55.8176 335.4339 0096691  34.6849 187.5205  2.00566937    11
GPS BIIF-5  (PRN 30)    
1 39533C 14008A   21342.69756944  .00000000  00000-0  00000-0 0  3420
2 39533  53.6469 216.6561 0054406 204.5394  18.2684  2.00570612    14
GPS BIIF-6  (PRN 06)    
1 39741C 14026A   21342.69756944 -.00000000  00000-0  00000-0 0  3422
2 39741  56.4788  35.6666 0026832 298.3032  84.0223  2.00569280    16
GPS BIIF-7  (PRN 09)    
1 40105C 14045A   21342.69756944 -.00000000  00000-0  00000-0 0  3429
2 40105  54.6534 154.4210 0021512 107.1933 208.3935  2.00565009    19
GPS BIIF-8  (PRN 03)    
1 40294C 14068A   21342.69756944 -.00000000  00000-0  00000-0 0  3423
2 40294  55.6756  95.4796 0036649  55.2875 353.2803  2.00558035    18
GPS BIIF-9  (PRN 26)    
1 40534C 15013A   21342.69756944  .00000000  00000-0  00000-0 0  3420
2 40534  53.8305 272.5970 0065185  16.5595 295.9055  2.00564000    13
GPS BIIF-10 (PRN 08)    
1 40730C 15033A   21342.69756944  .00000000  00000-0  00000-0 0  3420
2 40730  55.3210 334.3532 0068994   1.5333 194.0734  2.00561952    15
GPS BIIF-11 (PRN 10)    
1 41019C 15062A   21342.69756944 -.00000000  00000-0  00000-0 0  3424
2 41019  55.6663  95.3185 0074412 214.7019 303.9422  2.00563163    11
GPS BIIF-12 (PRN 32)    
1 41328C 16007A   21342.69756944 -.00000000  00000-0  00000-0 0  3427
2 41328  54.8758 155.0453 0054300 224.8703 225.8311  2.00554719    14
GPS BIII-1  (PRN 04)    
1 43873C 18109A   21342.69756944 -.00000000  00000-0  00000-0 0  3429
2 43873  55.0568 157.4234 0015975 188.8719 156.3233  2.00563832    14
GPS BIII-2  (PRN 18)    
1 44506C 19056A   21342.69756944 -.00000000  00000-0  00000-0 0  3425
2 44506  55.5838  36.6461 0020927 182.5273  64.7244  2.00568136    18
GPS BIII-3  (PRN 23)    
1 45854C 20041A   21342.69756944 -.00000000  00000-0  00000-0 0  3428
2 45854  55.3821  93.9146 0018738 169.6934  18.7833  2.00561507    16
GPS BIII-4  (PRN 14)    
1 46826C 20078A   21342.69756944  .00000000  00000-0  00000-0 0  3427
2 46826  54.6986 277.8332 0012274 187.9845 330.9910  2.00566814    14
GPS BIII-5  (PRN 11)    
1 48859C 21054A   21342.69756944 -.00000000  00000-0  00000-0 0  3421
2 48859  55.0850  38.7393 0003295 189.9388 157.3094  2.00555596    14
